{
    "links": {
        "self": "http://www.neowsapp.com/rest/v1/neo/3130460?api_key=iIulBulltgU6a56xZRHN4H3l9WmuAYTsLGpBGhQ2"
    },
    "id": "3130460",
    "neo_reference_id": "3130460",
    "name": "(2002 MR3)",
    "designation": "2002 MR3",
    "nasa_jpl_url": "http://ssd.jpl.nasa.gov/sbdb.cgi?sstr=3130460",
    "absolute_magnitude_h": 21.4,
    "estimated_diameter": {
        "kilometers": {
            "estimated_diameter_min": 0.1394938229,
            "estimated_diameter_max": 0.3119176705
        },
        "meters": {
            "estimated_diameter_min": 139.4938229344,
            "estimated_diameter_max": 311.9176705226
        },
        "miles": {
            "estimated_diameter_min": 0.0866774163,
            "estimated_diameter_max": 0.1938165949
        },
        "feet": {
            "estimated_diameter_min": 457.6569140361,
            "estimated_diameter_max": 1023.3519701574
        }
    },
    "is_potentially_hazardous_asteroid": true,
    "close_approach_data": [
        {
            "close_approach_date": "1978-05-08",
            "close_approach_date_full": "1978-May-08 16:41",
            "epoch_date_close_approach": 263493660000,
            "relative_velocity": {
                "kilometers_per_second": "19.5693755043",
                "kilometers_per_hour": "70449.7518153684",
                "miles_per_hour": "43774.7360654993"
            },
            "miss_distance": {
                "astronomical": "0.0368721542",
                "lunar": "14.3432679838",
                "kilometers": "5515995.730631554",
                "miles": "3427480.8126172852"
            },
            "orbiting_body": "Venus"
        },
        {
            "close_approach_date": "1978-07-20",
            "close_approach_date_full": "1978-Jul-20 18:16",
            "epoch_date_close_approach": 269806560000,
            "relative_velocity": {
                "kilometers_per_second": "33.2210900214",
                "kilometers_per_hour": "119595.9240770501",
                "miles_per_hour": "74312.2562688759"
            },
            "miss_distance": {
                "astronomical": "0.470195333",
                "lunar": "182.905984537",
                "kilometers": "70340220.30074071",
                "miles": "43707386.156453398"
            },
            "orbiting_body": "Earth"
        },
        {
            "close_approach_date": "2002-06-29",
            "close_approach_date_full": "2002-Jun-29 09:55",
            "epoch_date_close_approach": 1025344500000,
            "relative_velocity": {
                "kilometers_per_second": "19.9439208924",
                "kilometers_per_hour": "71798.1152127232",
                "miles_per_hour": "44612.5566442612"
            },
            "miss_distance": {
                "astronomical": "0.0461926901",
                "lunar": "17.9689564489",
                "kilometers": "6910328.048530087",
                "miles": "4293878.7395537206"
            },
            "orbiting_body": "Earth"
        }
    ],
    "orbital_data": {
        "orbit_id": "17",
        "orbit_determination_date": "2017-04-06 09:15:02",
        "first_observation_date": "2002-06-30",
        "last_observation_date": "2002-07-07",
        "data_arc_in_days": 7,
        "observations_used": 79,
        "orbit_uncertainty": "9",
        "minimum_orbit_intersection": ".0430645",
        "jupiter_tisserand_invariant": "4.298",
        "epoch_osculation": "2452459.5",
        "eccentricity": ".6185185714617487",
        "semi_major_axis": "1.501278923973787",
        "inclination": "9.748576471818252",
        "ascending_node_longitude": "110.5423151387949",
        "orbital_period": "671.8781356175936",
        "perihelion_distance": ".5727100285518889",
        "perihelion_argument": "66.9578449412197",
        "aphelion_distance": "2.429847819395685",
        "perihelion_time": "2452401.384267995825",
        "mean_anomaly": "31.13907480003305",
        "mean_motion": ".5358114528746888",
        "equinox": "J2000",
        "orbit_class": {
            "orbit_class_type": "APO",
            "orbit_class_description": "Near-Earth asteroid orbits which cross the Earth’s orbit similar to that of 1862 Apollo",
            "orbit_class_range": "a (semi-major axis) > 1.0 AU; q (perihelion) < 1.017 AU"
        }
    },
    "is_sentry_object": false
}